start=new Date('2023-06-10T00:00:00.000Z').valueOf();
sats=[{"OBJECT_NAME":"STARLINK-5335","APOAPSIS":"356.286","ELEMENT_SET_NO":"999","PERIAPSIS":"353.776","DECAY_DATE":null,"OBJECT_ID":"2023-065F","NORAD_CAT_ID":"56508","ECCENTRICITY":"0.00018640","MEAN_MOTION_DOT":"-0.00000217","SEMIMAJOR_AXIS":"6733.166","RCS_SIZE":"LARGE","CENTER_NAME":"EARTH","PERIOD":"91.641","COUNTRY_CODE":"US","REF_FRAME":"TEME","EPHEMERIS_TYPE":"0","TLE_LINE2":"2 56508  42.9994 284.0171 0001864 282.1366  77.9293 15.71353038  5393","INCLINATION":"42.9994","MEAN_ELEMENT_THEORY":"SGP4","MEAN_ANOMALY":"77.9293","TIME_SYSTEM":"UTC","TLE_LINE1":"1 56508U 23065F   23160.77959040 -.00000217  00000-0  17944-5 0  9994","EPOCH":"2023-06-09T18:42:36.610560","CLASSIFICATION_TYPE":"U","RA_OF_ASC_NODE":"284.0171","MEAN_MOTION":"15.71353038","REV_AT_EPOCH":"539","LAUNCH_DATE":"2023-05-14","OBJECT_TYPE":"PAYLOAD","SITE":"AFETR","GP_ID":"233583263","ARG_OF_PERICENTER":"282.1366","BSTAR":"0.00000179440000","FILE":"3929125","MEAN_MOTION_DDOT":"0.0000000000000"},{"ARG_OF_PERICENTER":"281.7896","MEAN_MOTION_DDOT":"0.0000000000000","FILE":"3929125","BSTAR":"0.00000173790000","SITE":"AFETR","GP_ID":"233583395","OBJECT_TYPE":"PAYLOAD","REV_AT_EPOCH":"539","MEAN_MOTION":"15.71352415","LAUNCH_DATE":"2023-05-14","RA_OF_ASC_NODE":"284.0138","TIME_SYSTEM":"UTC","MEAN_ELEMENT_THEORY":"SGP4","MEAN_ANOMALY":"78.2790","TLE_LINE1":"1 56509U 23065G   23160.77917346 -.00000224  00000-0  17379-5 0  9998","EPOCH":"2023-06-09T18:42:00.586944","CLASSIFICATION_TYPE":"U","INCLINATION":"43.0008","REF_FRAME":"TEME","COUNTRY_CODE":"US","TLE_LINE2":"2 56509  43.0008 284.0138 0001620 281.7896  78.2790 15.71352415  5392","EPHEMERIS_TYPE":"0","RCS_SIZE":"LARGE","CENTER_NAME":"EARTH","PERIOD":"91.641","SEMIMAJOR_AXIS":"6733.168","MEAN_MOTION_DOT":"-0.00000224","ECCENTRICITY":"0.00016200","NORAD_CAT_ID":"56509","ELEMENT_SET_NO":"999","PERIAPSIS":"353.942","OBJECT_ID":"2023-065G","DECAY_DATE":null,"APOAPSIS":"356.124","OBJECT_NAME":"STARLINK-5334"},{"INCLINATION":"42.9994","REF_FRAME":"TEME","COUNTRY_CODE":"US","TLE_LINE2":"2 56510  42.9994 284.0144 0001735 269.8065  90.2604 15.71352192  5395","EPHEMERIS_TYPE":"0","RA_OF_ASC_NODE":"284.0144","TIME_SYSTEM":"UTC","MEAN_ELEMENT_THEORY":"SGP4","MEAN_ANOMALY":"90.2604","CLASSIFICATION_TYPE":"U","TLE_LINE1":"1 56510U 23065H   23160.77938179  .00000440  00000-0  68029-5 0  9994","EPOCH":"2023-06-09T18:42:18.586656","OBJECT_TYPE":"PAYLOAD","REV_AT_EPOCH":"539","MEAN_MOTION":"15.71352192","LAUNCH_DATE":"2023-05-14","ARG_OF_PERICENTER":"269.8065","MEAN_MOTION_DDOT":"0.0000000000000","FILE":"3929125","BSTAR":"0.00000680290000","SITE":"AFETR","GP_ID":"233583328","APOAPSIS":"356.202","OBJECT_NAME":"STARLINK-5339","ELEMENT_SET_NO":"999","PERIAPSIS":"353.865","OBJECT_ID":"2023-065H","DECAY_DATE":null,"MEAN_MOTION_DOT":"0.00000440","ECCENTRICITY":"0.00017350","NORAD_CAT_ID":"56510","RCS_SIZE":"LARGE","CENTER_NAME":"EARTH","PERIOD":"91.641","SEMIMAJOR_AXIS":"6733.169"},{"NORAD_CAT_ID":"56511","MEAN_MOTION_DOT":"0.00000131","ECCENTRICITY":"0.00025390","SEMIMAJOR_AXIS":"6733.161","PERIOD":"91.641","CENTER_NAME":"EARTH","RCS_SIZE":"LARGE","OBJECT_NAME":"STARLINK-5351","APOAPSIS":"356.736","DECAY_DATE":null,"OBJECT_ID":"2023-065J","ELEMENT_SET_NO":"999","PERIAPSIS":"353.317","LAUNCH_DATE":"2023-05-14","MEAN_MOTION":"15.71354771","REV_AT_EPOCH":"537","OBJECT_TYPE":"PAYLOAD","GP_ID":"233583460","SITE":"AFETR","FILE":"3929125","BSTAR":"0.00000445360000","MEAN_MOTION_DDOT":"0.0000000000000","ARG_OF_PERICENTER":"276.4107","EPHEMERIS_TYPE":"0","TLE_LINE2":"2 56511  42.9999 284.7794 0002539 276.4107  83.6472 15.71354771  5375","COUNTRY_CODE":"US","REF_FRAME":"TEME","INCLINATION":"42.9999","CLASSIFICATION_TYPE":"U","TLE_LINE1":"1 56511U 23065J   23160.65183395  .00000131  00000-0  44536-5 0  9998","EPOCH":"2023-06-09T15:38:38.453280","MEAN_ANOMALY":"83.6472","MEAN_ELEMENT_THEORY":"SGP4","TIME_SYSTEM":"UTC","RA_OF_ASC_NODE":"284.7794"},{"PERIOD":"91.641","CENTER_NAME":"EARTH","RCS_SIZE":"LARGE","SEMIMAJOR_AXIS":"6733.169","ECCENTRICITY":"0.00015030","MEAN_MOTION_DOT":"0.00000145","NORAD_CAT_ID":"56512","OBJECT_ID":"2023-065K","DECAY_DATE":null,"ELEMENT_SET_NO":"999","PERIAPSIS":"354.022","APOAPSIS":"356.046","OBJECT_NAME":"STARLINK-5349","MEAN_MOTION_DDOT":"0.0000000000000","BSTAR":"0.00000455570000","FILE":"3929125","ARG_OF_PERICENTER":"282.0051","GP_ID":"233583523","SITE":"AFETR","OBJECT_TYPE":"PAYLOAD","LAUNCH_DATE":"2023-05-14","REV_AT_EPOCH":"539","MEAN_MOTION":"15.71352143","RA_OF_ASC_NODE":"284.0146","CLASSIFICATION_TYPE":"U","TLE_LINE1":"1 56512U 23065K   23160.77927943  .00000145  00000-0  45557-5 0  9996","EPOCH":"2023-06-09T18:42:09.742752","TIME_SYSTEM":"UTC","MEAN_ANOMALY":"78.0648","MEAN_ELEMENT_THEORY":"SGP4","INCLINATION":"43.0006","TLE_LINE2":"2 56512  43.0006 284.0146 0001503 282.0051  78.0648 15.71352143  5398","EPHEMERIS_TYPE":"0","REF_FRAME":"TEME","COUNTRY_CODE":"US"},{"APOAPSIS":"356.309","OBJECT_NAME":"STARLINK-5329","OBJECT_ID":"2023-065L","DECAY_DATE":null,"PERIAPSIS":"353.783","ELEMENT_SET_NO":"999","MEAN_MOTION_DOT":"-0.00001839","ECCENTRICITY":"0.00018760","NORAD_CAT_ID":"56513","PERIOD":"91.641","RCS_SIZE":"LARGE","CENTER_NAME":"EARTH","SEMIMAJOR_AXIS":"6733.181","INCLINATION":"42.9991","TLE_LINE2":"2 56513  42.9991 284.3943 0001876 271.0285  89.0368 15.71347732  5386","EPHEMERIS_TYPE":"0","REF_FRAME":"TEME","COUNTRY_CODE":"US","RA_OF_ASC_NODE":"284.3943","TLE_LINE1":"1 56513U 23065L   23160.71518855 -.00001839  00000-0 -10578-4 0  9996","CLASSIFICATION_TYPE":"U","EPOCH":"2023-06-09T17:09:52.290720","TIME_SYSTEM":"UTC","MEAN_ELEMENT_THEORY":"SGP4","MEAN_ANOMALY":"89.0368","OBJECT_TYPE":"PAYLOAD","LAUNCH_DATE":"2023-05-14","REV_AT_EPOCH":"538","MEAN_MOTION":"15.71347732","MEAN_MOTION_DDOT":"0.0000000000000","FILE":"3929125","BSTAR":"-0.00001057800000","ARG_OF_PERICENTER":"271.0285","GP_ID":"233583136","SITE":"AFETR"},{"OBJECT_TYPE":"PAYLOAD","MEAN_MOTION":"15.73516990","REV_AT_EPOCH":"539","LAUNCH_DATE":"2023-05-14","ARG_OF_PERICENTER":"326.6435","BSTAR":"0.00054017000000","FILE":"3929125","MEAN_MOTION_DDOT":"0.0000000000000","SITE":"AFETR","GP_ID":"233583588","INCLINATION":"43.0018","COUNTRY_CODE":"US","REF_FRAME":"TEME","EPHEMERIS_TYPE":"0","TLE_LINE2":"2 56514  43.0018 283.7905 0003418 326.6435  33.4218 15.73516990  5392","RA_OF_ASC_NODE":"283.7905","MEAN_ELEMENT_THEORY":"SGP4","MEAN_ANOMALY":"33.4218","TIME_SYSTEM":"UTC","EPOCH":"2023-06-09T18:01:11.835552","TLE_LINE1":"1 56514U 23065M   23160.75083143  .00077947  00000-0  54017-3 0  9994","CLASSIFICATION_TYPE":"U","ECCENTRICITY":"0.00034180","MEAN_MOTION_DOT":"0.00077947","NORAD_CAT_ID":"56514","RCS_SIZE":"LARGE","CENTER_NAME":"EARTH","PERIOD":"91.515","SEMIMAJOR_AXIS":"6726.992","APOAPSIS":"351.156","OBJECT_NAME":"STARLINK-5343","PERIAPSIS":"346.557","ELEMENT_SET_NO":"999","DECAY_DATE":null,"OBJECT_ID":"2023-065M"},{"APOAPSIS":"356.170","OBJECT_NAME":"STARLINK-5348","PERIAPSIS":"353.890","ELEMENT_SET_NO":"999","OBJECT_ID":"2023-065N","DECAY_DATE":null,"ECCENTRICITY":"0.00016930","MEAN_MOTION_DOT":"-0.00001088","NORAD_CAT_ID":"56515","RCS_SIZE":"LARGE","CENTER_NAME":"EARTH","PERIOD":"91.641","SEMIMAJOR_AXIS":"6733.165","INCLINATION":"42.9994","REF_FRAME":"TEME","COUNTRY_CODE":"US","TLE_LINE2":"2 56515  42.9994 284.3932 0001693 271.6381  88.4293 15.71353284  5388","EPHEMERIS_TYPE":"0","RA_OF_ASC_NODE":"284.3932","TIME_SYSTEM":"UTC","MEAN_ELEMENT_THEORY":"SGP4","MEAN_ANOMALY":"88.4293","CLASSIFICATION_TYPE":"U","TLE_LINE1":"1 56515U 23065N   23160.71508129 -.00001088  00000-0 -48474-5 0  9994","EPOCH":"2023-06-09T17:09:43.023456","OBJECT_TYPE":"PAYLOAD","REV_AT_EPOCH":"538","MEAN_MOTION":"15.71353284","LAUNCH_DATE":"2023-05-14","ARG_OF_PERICENTER":"271.6381","MEAN_MOTION_DDOT":"0.0000000000000","FILE":"3929125","BSTAR":"-0.00000484740000","SITE":"AFETR","GP_ID":"233583201"},{"SEMIMAJOR_AXIS":"6733.155","PERIOD":"91.641","RCS_SIZE":"LARGE","CENTER_NAME":"EARTH","NORAD_CAT_ID":"56516","ECCENTRICITY":"0.00017830","MEAN_MOTION_DOT":"0.00000769","DECAY_DATE":null,"OBJECT_ID":"2023-065P","PERIAPSIS":"353.820","ELEMENT_SET_NO":"999","OBJECT_NAME":"STARLINK-5342","APOAPSIS":"356.221","GP_ID":"233583264","SITE":"AFETR","FILE":"3929125","BSTAR":"0.00000931190000","MEAN_MOTION_DDOT":"0.0000000000000","ARG_OF_PERICENTER":"279.0850","LAUNCH_DATE":"2023-05-14","MEAN_MOTION":"15.71356898","REV_AT_EPOCH":"538","OBJECT_TYPE":"PAYLOAD","TLE_LINE1":"1 56516U 23065P   23160.71529252  .00000769  00000-0  93119-5 0  9994","EPOCH":"2023-06-09T17:10:01.273728","CLASSIFICATION_TYPE":"U","MEAN_ELEMENT_THEORY":"SGP4","MEAN_ANOMALY":"80.9816","TIME_SYSTEM":"UTC","RA_OF_ASC_NODE":"284.3962","EPHEMERIS_TYPE":"0","TLE_LINE2":"2 56516  43.0001 284.3962 0001783 279.0850  80.9816 15.71356898  5388","COUNTRY_CODE":"US","REF_FRAME":"TEME","INCLINATION":"43.0001"},{"TIME_SYSTEM":"UTC","MEAN_ANOMALY":"83.6909","MEAN_ELEMENT_THEORY":"SGP4","TLE_LINE1":"1 56517U 23065Q   23160.71476353  .00002135  00000-0  19720-4 0  9992","CLASSIFICATION_TYPE":"U","EPOCH":"2023-06-09T17:09:15.568992","RA_OF_ASC_NODE":"284.3915","REF_FRAME":"TEME","COUNTRY_CODE":"US","TLE_LINE2":"2 56517  42.9993 284.3915 0001992 276.3732  83.6909 15.71361057  5382","EPHEMERIS_TYPE":"0","INCLINATION":"42.9993","SITE":"AFETR","GP_ID":"233583396","ARG_OF_PERICENTER":"276.3732","MEAN_MOTION_DDOT":"0.0000000000000","FILE":"3929125","BSTAR":"0.00001972000000","REV_AT_EPOCH":"538","MEAN_MOTION":"15.71361057","LAUNCH_DATE":"2023-05-14","OBJECT_TYPE":"PAYLOAD","PERIAPSIS":"353.667","ELEMENT_SET_NO":"999","OBJECT_ID":"2023-065Q","DECAY_DATE":null,"OBJECT_NAME":"STARLINK-5345","APOAPSIS":"356.349","SEMIMAJOR_AXIS":"6733.143","RCS_SIZE":"LARGE","CENTER_NAME":"EARTH","PERIOD":"91.640","NORAD_CAT_ID":"56517","MEAN_MOTION_DOT":"0.00002135","ECCENTRICITY":"0.00019920"}];
